CCSDS_OMM_VERS = 2.0
CREATION_DATE  = 
ORIGINATOR     = 

OBJECT_NAME    = STARLINK-36552
OBJECT_ID      = 2026-012L
CENTER_NAME    = EARTH
REF_FRAME      = TEME
TIME_SYSTEM    = UTC
MEAN_ELEMENT_THEORY = SGP/SGP4

EPOCH          = 2026-02-13T12:00:02.998944
MEAN_MOTION    = 15.44784080
ECCENTRICITY   = .0000932
INCLINATION    = 43.0005
RA_OF_ASC_NODE = 91.1597
ARG_OF_PERICENTER = 302.1183
MEAN_ANOMALY   = 308.9490

EPHEMERIS_TYPE = 0
CLASSIFICATION_TYPE = U
NORAD_CAT_ID   = 67503
ELEMENT_SET_NO = 999
REV_AT_EPOCH   = 518
BSTAR          = -.43619E-1
MEAN_MOTION_DOT = -.1877725E-1
MEAN_MOTION_DDOT = 0

CCSDS_OMM_VERS = 2.0
CREATION_DATE  = 
ORIGINATOR     = 

OBJECT_NAME    = STARLINK-36512
OBJECT_ID      = 2026-012M
CENTER_NAME    = EARTH
REF_FRAME      = TEME
TIME_SYSTEM    = UTC
MEAN_ELEMENT_THEORY = SGP/SGP4

EPOCH          = 2026-02-13T12:00:02.998944
MEAN_MOTION    = 15.49222949
ECCENTRICITY   = .0001063
INCLINATION    = 43.0006
RA_OF_ASC_NODE = 91.2452
ARG_OF_PERICENTER = 292.6364
MEAN_ANOMALY   = 283.0654

EPHEMERIS_TYPE = 0
CLASSIFICATION_TYPE = U
NORAD_CAT_ID   = 67504
ELEMENT_SET_NO = 999
REV_AT_EPOCH   = 518
BSTAR          = -.39248E-1
MEAN_MOTION_DOT = -.196357E-1
MEAN_MOTION_DDOT = 0

CCSDS_OMM_VERS = 2.0
CREATION_DATE  = 
ORIGINATOR     = 

OBJECT_NAME    = STARLINK-36545
OBJECT_ID      = 2026-012N
CENTER_NAME    = EARTH
REF_FRAME      = TEME
TIME_SYSTEM    = UTC
MEAN_ELEMENT_THEORY = SGP/SGP4

EPOCH          = 2026-02-13T12:00:02.998944
MEAN_MOTION    = 15.49585726
ECCENTRICITY   = .0000857
INCLINATION    = 43.0005
RA_OF_ASC_NODE = 91.1989
ARG_OF_PERICENTER = 296.5998
MEAN_ANOMALY   = 297.7791

EPHEMERIS_TYPE = 0
CLASSIFICATION_TYPE = U
NORAD_CAT_ID   = 67505
ELEMENT_SET_NO = 999
REV_AT_EPOCH   = 518
BSTAR          = -.38693E-1
MEAN_MOTION_DOT = -.1961145E-1
MEAN_MOTION_DDOT = 0

CCSDS_OMM_VERS = 2.0
CREATION_DATE  = 
ORIGINATOR     = 

OBJECT_NAME    = STARLINK-36553
OBJECT_ID      = 2026-012P
CENTER_NAME    = EARTH
REF_FRAME      = TEME
TIME_SYSTEM    = UTC
MEAN_ELEMENT_THEORY = SGP/SGP4

EPOCH          = 2026-02-13T12:00:02.998944
MEAN_MOTION    = 15.48329881
ECCENTRICITY   = .0001113
INCLINATION    = 43.0005
RA_OF_ASC_NODE = 91.1018
ARG_OF_PERICENTER = 278.5902
MEAN_ANOMALY   = 354.9446

EPHEMERIS_TYPE = 0
CLASSIFICATION_TYPE = U
NORAD_CAT_ID   = 67506
ELEMENT_SET_NO = 999
REV_AT_EPOCH   = 518
BSTAR          = -.39132E-1
MEAN_MOTION_DOT = -.190355E-1
MEAN_MOTION_DDOT = 0

CCSDS_OMM_VERS = 2.0
CREATION_DATE  = 
ORIGINATOR     = 

OBJECT_NAME    = STARLINK-36521
OBJECT_ID      = 2026-012Q
CENTER_NAME    = EARTH
REF_FRAME      = TEME
TIME_SYSTEM    = UTC
MEAN_ELEMENT_THEORY = SGP/SGP4

EPOCH          = 2026-02-13T12:00:02.998944
MEAN_MOTION    = 15.48823613
ECCENTRICITY   = .0000767
INCLINATION    = 43.0005
RA_OF_ASC_NODE = 91.0888
ARG_OF_PERICENTER = 279.9806
MEAN_ANOMALY   = 358.5775

EPHEMERIS_TYPE = 0
CLASSIFICATION_TYPE = U
NORAD_CAT_ID   = 67507
ELEMENT_SET_NO = 999
REV_AT_EPOCH   = 518
BSTAR          = -.38468E-1
MEAN_MOTION_DOT = -.1903966E-1
MEAN_MOTION_DDOT = 0

CCSDS_OMM_VERS = 2.0
CREATION_DATE  = 
ORIGINATOR     = 

OBJECT_NAME    = STARLINK-36526
OBJECT_ID      = 2026-012R
CENTER_NAME    = EARTH
REF_FRAME      = TEME
TIME_SYSTEM    = UTC
MEAN_ELEMENT_THEORY = SGP/SGP4

EPOCH          = 2026-02-13T12:00:02.998944
MEAN_MOTION    = 15.49601463
ECCENTRICITY   = .0000855
INCLINATION    = 43.0001
RA_OF_ASC_NODE = 91.0734
ARG_OF_PERICENTER = 281.8682
MEAN_ANOMALY   = 2.7779

EPHEMERIS_TYPE = 0
CLASSIFICATION_TYPE = U
NORAD_CAT_ID   = 67508
ELEMENT_SET_NO = 999
REV_AT_EPOCH   = 518
BSTAR          = -.37877E-1
MEAN_MOTION_DOT = -.192496E-1
MEAN_MOTION_DDOT = 0

CCSDS_OMM_VERS = 2.0
CREATION_DATE  = 
ORIGINATOR     = 

OBJECT_NAME    = STARLINK-36541
OBJECT_ID      = 2026-012S
CENTER_NAME    = EARTH
REF_FRAME      = TEME
TIME_SYSTEM    = UTC
MEAN_ELEMENT_THEORY = SGP/SGP4

EPOCH          = 2026-02-13T11:06:14.130720
MEAN_MOTION    = 15.50619440
ECCENTRICITY   = .0001025
INCLINATION    = 43.0021
RA_OF_ASC_NODE = 92.3654
ARG_OF_PERICENTER = 265.0376
MEAN_ANOMALY   = 95.0367

EPHEMERIS_TYPE = 0
CLASSIFICATION_TYPE = U
NORAD_CAT_ID   = 67509
ELEMENT_SET_NO = 999
REV_AT_EPOCH   = 404
BSTAR          = .10666E-2
MEAN_MOTION_DOT = .62823E-3
MEAN_MOTION_DDOT = 0

CCSDS_OMM_VERS = 2.0
CREATION_DATE  = 
ORIGINATOR     = 

OBJECT_NAME    = STARLINK-36549
OBJECT_ID      = 2026-012T
CENTER_NAME    = EARTH
REF_FRAME      = TEME
TIME_SYSTEM    = UTC
MEAN_ELEMENT_THEORY = SGP/SGP4

EPOCH          = 2026-02-13T12:00:02.998944
MEAN_MOTION    = 15.46995765
ECCENTRICITY   = .0001008
INCLINATION    = 43.0002
RA_OF_ASC_NODE = 90.9603
ARG_OF_PERICENTER = 281.2669
MEAN_ANOMALY   = 46.1514

EPHEMERIS_TYPE = 0
CLASSIFICATION_TYPE = U
NORAD_CAT_ID   = 67510
ELEMENT_SET_NO = 999
REV_AT_EPOCH   = 512
BSTAR          = -.4041E-1
MEAN_MOTION_DOT = -.1878365E-1
MEAN_MOTION_DDOT = 0

CCSDS_OMM_VERS = 2.0
CREATION_DATE  = 
ORIGINATOR     = 

OBJECT_NAME    = STARLINK-36540
OBJECT_ID      = 2026-012U
CENTER_NAME    = EARTH
REF_FRAME      = TEME
TIME_SYSTEM    = UTC
MEAN_ELEMENT_THEORY = SGP/SGP4

EPOCH          = 2026-02-13T04:52:49.265472
MEAN_MOTION    = 15.50623897
ECCENTRICITY   = .0001638
INCLINATION    = 43.0024
RA_OF_ASC_NODE = 93.8610
ARG_OF_PERICENTER = 269.5302
MEAN_ANOMALY   = 90.5370

EPHEMERIS_TYPE = 0
CLASSIFICATION_TYPE = U
NORAD_CAT_ID   = 67511
ELEMENT_SET_NO = 999
REV_AT_EPOCH   = 400
BSTAR          = .134E-2
MEAN_MOTION_DOT = .79194E-3
MEAN_MOTION_DDOT = 0

CCSDS_OMM_VERS = 2.0
CREATION_DATE  = 
ORIGINATOR     = 

OBJECT_NAME    = STARLINK-36538
OBJECT_ID      = 2026-012V
CENTER_NAME    = EARTH
REF_FRAME      = TEME
TIME_SYSTEM    = UTC
MEAN_ELEMENT_THEORY = SGP/SGP4

EPOCH          = 2026-02-13T12:00:02.998944
MEAN_MOTION    = 15.40748736
ECCENTRICITY   = .0001532
INCLINATION    = 43.0001
RA_OF_ASC_NODE = 91.4287
ARG_OF_PERICENTER = 299.9213
MEAN_ANOMALY   = 201.0663

EPHEMERIS_TYPE = 0
CLASSIFICATION_TYPE = U
NORAD_CAT_ID   = 67512
ELEMENT_SET_NO = 999
REV_AT_EPOCH   = 518
BSTAR          = -.48628E-1
MEAN_MOTION_DOT = -.1830687E-1
MEAN_MOTION_DDOT = 0

CCSDS_OMM_VERS = 2.0
CREATION_DATE  = 
ORIGINATOR     = 

OBJECT_NAME    = STARLINK-36531
OBJECT_ID      = 2026-012W
CENTER_NAME    = EARTH
REF_FRAME      = TEME
TIME_SYSTEM    = UTC
MEAN_ELEMENT_THEORY = SGP/SGP4

EPOCH          = 2026-02-13T12:00:02.998944
MEAN_MOTION    = 15.42206112
ECCENTRICITY   = .0001184
INCLINATION    = 43.0002
RA_OF_ASC_NODE = 91.3304
ARG_OF_PERICENTER = 294.7728
MEAN_ANOMALY   = 245.6542

EPHEMERIS_TYPE = 0
CLASSIFICATION_TYPE = U
NORAD_CAT_ID   = 67513
ELEMENT_SET_NO = 999
REV_AT_EPOCH   = 512
BSTAR          = -.4822E-1
MEAN_MOTION_DOT = -.1898638E-1
MEAN_MOTION_DDOT = 0

CCSDS_OMM_VERS = 2.0
CREATION_DATE  = 
ORIGINATOR     = 

OBJECT_NAME    = STARLINK-36530
OBJECT_ID      = 2026-012X
CENTER_NAME    = EARTH
REF_FRAME      = TEME
TIME_SYSTEM    = UTC
MEAN_ELEMENT_THEORY = SGP/SGP4

EPOCH          = 2026-02-13T12:00:02.998944
MEAN_MOTION    = 15.43335634
ECCENTRICITY   = .0001192
INCLINATION    = 42.9999
RA_OF_ASC_NODE = 91.3607
ARG_OF_PERICENTER = 296.5478
MEAN_ANOMALY   = 231.5355

EPHEMERIS_TYPE = 0
CLASSIFICATION_TYPE = U
NORAD_CAT_ID   = 67514
ELEMENT_SET_NO = 999
REV_AT_EPOCH   = 512
BSTAR          = -.46504E-1
MEAN_MOTION_DOT = -.1902293E-1
MEAN_MOTION_DDOT = 0

