STARLINK-36552          
1 67503U 26012L   26044.50003471 -.01877725  00000+0 -43619-1 0  9990
2 67503  43.0005  91.1597 0000932 302.1183 308.9490 15.44784080  5187
STARLINK-36512          
1 67504U 26012M   26044.50003471 -.01963570  00000+0 -39248-1 0  9998
2 67504  43.0006  91.2452 0001063 292.6364 283.0654 15.49222949  5181
STARLINK-36545          
1 67505U 26012N   26044.50003471 -.01961145  00000+0 -38693-1 0  9998
2 67505  43.0005  91.1989 0000857 296.5998 297.7791 15.49585726  5180
STARLINK-36553          
1 67506U 26012P   26044.50003471 -.01903550  00000+0 -39132-1 0  9994
2 67506  43.0005  91.1018 0001113 278.5902 354.9446 15.48329881  5185
STARLINK-36521          
1 67507U 26012Q   26044.50003471 -.01903966  00000+0 -38468-1 0  9997
2 67507  43.0005  91.0888 0000767 279.9806 358.5775 15.48823613  5189
STARLINK-36526          
1 67508U 26012R   26044.50003471 -.01924960  00000+0 -37877-1 0  9998
2 67508  43.0001  91.0734 0000855 281.8682   2.7779 15.49601463  5188
STARLINK-36541          
1 67509U 26012S   26044.46266355  .00062823  00000+0  10666-2 0  9992
2 67509  43.0021  92.3654 0001025 265.0376  95.0367 15.50619440  4048
STARLINK-36549          
1 67510U 26012T   26044.50003471 -.01878365  00000+0 -40410-1 0  9995
2 67510  43.0002  90.9603 0001008 281.2669  46.1514 15.46995765  5126
STARLINK-36540          
1 67511U 26012U   26044.20334798  .00079194  00000+0  13400-2 0  9992
2 67511  43.0024  93.8610 0001638 269.5302  90.5370 15.50623897  4001
STARLINK-36538          
1 67512U 26012V   26044.50003471 -.01830687  00000+0 -48628-1 0  9991
2 67512  43.0001  91.4287 0001532 299.9213 201.0663 15.40748736  5185
STARLINK-36531          
1 67513U 26012W   26044.50003471 -.01898638  00000+0 -48220-1 0  9990
2 67513  43.0002  91.3304 0001184 294.7728 245.6542 15.42206112  5126
STARLINK-36530          
1 67514U 26012X   26044.50003471 -.01902293  00000+0 -46504-1 0  9997
2 67514  42.9999  91.3607 0001192 296.5478 231.5355 15.43335634  5126
